[{"OBJECT_NAME":"STARLINK-2032","OBJECT_ID":"2021-012AF","EPOCH":"2026-03-09T01:15:59.035968","MEAN_MOTION":15.65431979,"ECCENTRICITY":0.00102565,"INCLINATION":53.0435,"RA_OF_ASC_NODE":17.0799,"ARG_OF_PERICENTER":79.1502,"MEAN_ANOMALY":281.0667,"EPHEMERIS_TYPE":0,"CLASSIFICATION_TYPE":"U","NORAD_CAT_ID":47649,"ELEMENT_SET_NO":999,"REV_AT_EPOCH":28070,"BSTAR":0.00099601867,"MEAN_MOTION_DOT":0.00102351,"MEAN_MOTION_DDOT":0},{"OBJECT_NAME":"STARLINK-11287 [DTC]","OBJECT_ID":"2024-158J","EPOCH":"2026-03-09T19:43:31.475712","MEAN_MOTION":15.69705376,"ECCENTRICITY":8.411e-5,"INCLINATION":53.1597,"RA_OF_ASC_NODE":280.7399,"ARG_OF_PERICENTER":60.1114,"MEAN_ANOMALY":299.9987,"EPHEMERIS_TYPE":0,"CLASSIFICATION_TYPE":"U","NORAD_CAT_ID":60998,"ELEMENT_SET_NO":999,"REV_AT_EPOCH":8760,"BSTAR":-1.3450658e-5,"MEAN_MOTION_DOT":-2.217e-5,"MEAN_MOTION_DDOT":0}]
